start=new Date('2022-03-22T00:00:00.000Z').valueOf();
sats=[{"OBJECT_NAME":"STARLINK-1788","OBJECT_TYPE":"PAYLOAD","DECAY_DATE":null,"BSTAR":"0.00013714000000","CLASSIFICATION_TYPE":"U","TIME_SYSTEM":"UTC","MEAN_MOTION_DOT":"0.00001762","ECCENTRICITY":"0.00017980","NORAD_CAT_ID":"46689","TLE_LINE2":"2 46689  53.0528 280.6512 0001798  64.4279 295.6896 15.06410505 79793","FILE":"3368836","MEAN_MOTION_DDOT":"0.0000000000000","MEAN_ANOMALY":"295.6896","PERIOD":"95.591","GP_ID":"199347313","SITE":"AFETR","EPHEMERIS_TYPE":"0","LAUNCH_DATE":"2020-10-18","OBJECT_ID":"2020-073V","ELEMENT_SET_NO":"999","REV_AT_EPOCH":"7979","MEAN_ELEMENT_THEORY":"SGP4","REF_FRAME":"TEME","INCLINATION":"53.0528","RCS_SIZE":"LARGE","COUNTRY_CODE":"US","SEMIMAJOR_AXIS":"6925.316","EPOCH":"2022-03-21T20:47:31.389792","MEAN_MOTION":"15.06410505","RA_OF_ASC_NODE":"280.6512","APOAPSIS":"548.427","PERIAPSIS":"545.936","TLE_LINE1":"1 46689U 20073V   22080.86633553  .00001762  00000-0  13714-3 0  9991","CENTER_NAME":"EARTH","ARG_OF_PERICENTER":"64.4279"},{"FILE":"3368836","LAUNCH_DATE":"2020-10-18","OBJECT_ID":"2020-073W","EPHEMERIS_TYPE":"0","SITE":"AFETR","GP_ID":"199348563","PERIOD":"95.592","MEAN_ANOMALY":"282.4684","MEAN_MOTION_DDOT":"0.0000000000000","CLASSIFICATION_TYPE":"U","DECAY_DATE":null,"BSTAR":"0.00007328200000","OBJECT_TYPE":"PAYLOAD","OBJECT_NAME":"STARLINK-1789","TLE_LINE2":"2 46690  53.0546 255.9269 0001343  77.6456 282.4684 15.06402436 78880","NORAD_CAT_ID":"46690","ECCENTRICITY":"0.00013430","MEAN_MOTION_DOT":"0.00000810","TIME_SYSTEM":"UTC","TLE_LINE1":"1 46690U 20073W   22080.80044792  .00000810  00000-0  73282-4 0  9998","PERIAPSIS":"546.276","APOAPSIS":"548.136","ARG_OF_PERICENTER":"77.6456","CENTER_NAME":"EARTH","INCLINATION":"53.0546","REF_FRAME":"TEME","MEAN_ELEMENT_THEORY":"SGP4","ELEMENT_SET_NO":"999","REV_AT_EPOCH":"7888","MEAN_MOTION":"15.06402436","RA_OF_ASC_NODE":"255.9269","EPOCH":"2022-03-21T19:12:38.700288","SEMIMAJOR_AXIS":"6925.341","RCS_SIZE":"LARGE","COUNTRY_CODE":"US"},{"OBJECT_TYPE":"PAYLOAD","BSTAR":"0.00017616000000","DECAY_DATE":null,"CLASSIFICATION_TYPE":"U","OBJECT_NAME":"STARLINK-1790","TLE_LINE2":"2 46691  53.0525 265.9506 0001618  62.3763 297.7390 15.06405242 78746","TIME_SYSTEM":"UTC","MEAN_MOTION_DOT":"0.00002344","ECCENTRICITY":"0.00016180","NORAD_CAT_ID":"46691","FILE":"3368836","SITE":"AFETR","EPHEMERIS_TYPE":"0","OBJECT_ID":"2020-073X","LAUNCH_DATE":"2020-10-18","MEAN_MOTION_DDOT":"0.0000000000000","MEAN_ANOMALY":"297.7390","PERIOD":"95.592","GP_ID":"199348315","INCLINATION":"53.0525","ELEMENT_SET_NO":"999","REV_AT_EPOCH":"7874","REF_FRAME":"TEME","MEAN_ELEMENT_THEORY":"SGP4","MEAN_MOTION":"15.06405242","RA_OF_ASC_NODE":"265.9506","COUNTRY_CODE":"US","RCS_SIZE":"LARGE","SEMIMAJOR_AXIS":"6925.332","EPOCH":"2022-03-21T19:11:19.138848","APOAPSIS":"548.318","PERIAPSIS":"546.077","TLE_LINE1":"1 46691U 20073X   22080.79952707  .00002344  00000-0  17616-3 0  9993","ARG_OF_PERICENTER":"62.3763","CENTER_NAME":"EARTH"},{"SITE":"AFETR","EPHEMERIS_TYPE":"0","OBJECT_ID":"2020-073Y","LAUNCH_DATE":"2020-10-18","MEAN_MOTION_DDOT":"0.0000000000000","MEAN_ANOMALY":"289.8777","PERIOD":"95.592","GP_ID":"199347562","FILE":"3368836","TLE_LINE2":"2 46692  53.0544 280.6971 0001522  70.2376 289.8777 15.06408588 78545","TIME_SYSTEM":"UTC","MEAN_MOTION_DOT":"0.00001738","ECCENTRICITY":"0.00015220","NORAD_CAT_ID":"46692","OBJECT_TYPE":"PAYLOAD","DECAY_DATE":null,"BSTAR":"0.00013551000000","CLASSIFICATION_TYPE":"U","OBJECT_NAME":"STARLINK-1791","ARG_OF_PERICENTER":"70.2376","CENTER_NAME":"EARTH","APOAPSIS":"548.241","PERIAPSIS":"546.133","TLE_LINE1":"1 46692U 20073Y   22080.85159257  .00001738  00000-0  13551-3 0  9990","RA_OF_ASC_NODE":"280.6971","MEAN_MOTION":"15.06408588","RCS_SIZE":"LARGE","COUNTRY_CODE":"US","SEMIMAJOR_AXIS":"6925.322","EPOCH":"2022-03-21T20:26:17.598048","INCLINATION":"53.0544","REV_AT_EPOCH":"7854","ELEMENT_SET_NO":"999","REF_FRAME":"TEME","MEAN_ELEMENT_THEORY":"SGP4"},{"MEAN_MOTION":"15.06411489","RA_OF_ASC_NODE":"265.9231","SEMIMAJOR_AXIS":"6925.313","COUNTRY_CODE":"US","RCS_SIZE":"LARGE","EPOCH":"2022-03-21T19:16:37.985088","INCLINATION":"53.0546","REV_AT_EPOCH":"7874","ELEMENT_SET_NO":"999","REF_FRAME":"TEME","MEAN_ELEMENT_THEORY":"SGP4","ARG_OF_PERICENTER":"64.6893","CENTER_NAME":"EARTH","PERIAPSIS":"546.034","APOAPSIS":"548.322","TLE_LINE1":"1 46693U 20073Z   22080.80321742  .00000727  00000-0  67694-4 0  9991","TLE_LINE2":"2 46693  53.0546 265.9231 0001652  64.6893 295.4267 15.06411489 78741","MEAN_MOTION_DOT":"0.00000727","TIME_SYSTEM":"UTC","NORAD_CAT_ID":"46693","ECCENTRICITY":"0.00016520","BSTAR":"0.00006769400000","DECAY_DATE":null,"OBJECT_TYPE":"PAYLOAD","CLASSIFICATION_TYPE":"U","OBJECT_NAME":"STARLINK-1792","EPHEMERIS_TYPE":"0","SITE":"AFETR","LAUNCH_DATE":"2020-10-18","OBJECT_ID":"2020-073Z","MEAN_ANOMALY":"295.4267","MEAN_MOTION_DDOT":"0.0000000000000","GP_ID":"199347812","PERIOD":"95.591","FILE":"3368836"},{"MEAN_ELEMENT_THEORY":"SGP4","REF_FRAME":"TEME","REV_AT_EPOCH":"7904","ELEMENT_SET_NO":"999","INCLINATION":"53.0540","EPOCH":"2022-03-21T21:26:40.495200","SEMIMAJOR_AXIS":"6925.368","COUNTRY_CODE":"US","RCS_SIZE":"LARGE","MEAN_MOTION":"15.06393644","RA_OF_ASC_NODE":"245.5275","TLE_LINE1":"1 46694U 20073AA  22080.89352425  .00000080  00000-0  24271-4 0  9999","PERIAPSIS":"546.160","APOAPSIS":"548.306","CENTER_NAME":"EARTH","ARG_OF_PERICENTER":"130.8726","OBJECT_NAME":"STARLINK-1793","CLASSIFICATION_TYPE":"U","BSTAR":"0.00002427100000","DECAY_DATE":null,"OBJECT_TYPE":"PAYLOAD","NORAD_CAT_ID":"46694","ECCENTRICITY":"0.00015490","MEAN_MOTION_DOT":"0.00000080","TIME_SYSTEM":"UTC","TLE_LINE2":"2 46694  53.0540 245.5275 0001549 130.8726 229.2397 15.06393644 79049","FILE":"3368836","GP_ID":"199348065","PERIOD":"95.593","MEAN_ANOMALY":"229.2397","MEAN_MOTION_DDOT":"0.0000000000000","LAUNCH_DATE":"2020-10-18","OBJECT_ID":"2020-073AA","EPHEMERIS_TYPE":"0","SITE":"AFETR"},{"SEMIMAJOR_AXIS":"6925.343","RCS_SIZE":"LARGE","COUNTRY_CODE":"US","EPOCH":"2022-03-21T18:42:07.340832","RA_OF_ASC_NODE":"246.0269","MEAN_MOTION":"15.06401678","REV_AT_EPOCH":"7902","ELEMENT_SET_NO":"999","MEAN_ELEMENT_THEORY":"SGP4","REF_FRAME":"TEME","INCLINATION":"53.0553","CENTER_NAME":"EARTH","ARG_OF_PERICENTER":"54.0939","PERIAPSIS":"545.966","APOAPSIS":"548.451","TLE_LINE1":"1 46696U 20073AC  22080.77925163  .00000610  00000-0  59819-4 0  9998","MEAN_MOTION_DOT":"0.00000610","TIME_SYSTEM":"UTC","NORAD_CAT_ID":"46696","ECCENTRICITY":"0.00017940","TLE_LINE2":"2 46696  53.0553 246.0269 0001794  54.0939 306.0217 15.06401678 79029","OBJECT_NAME":"STARLINK-1795","BSTAR":"0.00005981900000","DECAY_DATE":null,"OBJECT_TYPE":"PAYLOAD","CLASSIFICATION_TYPE":"U","MEAN_ANOMALY":"306.0217","MEAN_MOTION_DDOT":"0.0000000000000","GP_ID":"199348814","PERIOD":"95.592","EPHEMERIS_TYPE":"0","SITE":"AFETR","LAUNCH_DATE":"2020-10-18","OBJECT_ID":"2020-073AC","FILE":"3368836"},{"ARG_OF_PERICENTER":"75.3128","CENTER_NAME":"EARTH","APOAPSIS":"548.226","PERIAPSIS":"546.251","TLE_LINE1":"1 46698U 20073AE  22080.90273760  .00000763  00000-0  70156-4 0  9990","RA_OF_ASC_NODE":"265.4717","MEAN_MOTION":"15.06391994","COUNTRY_CODE":"US","RCS_SIZE":"LARGE","SEMIMAJOR_AXIS":"6925.373","EPOCH":"2022-03-21T21:39:56.528640","INCLINATION":"53.0537","ELEMENT_SET_NO":"999","REV_AT_EPOCH":"7876","REF_FRAME":"TEME","MEAN_ELEMENT_THEORY":"SGP4","SITE":"AFETR","EPHEMERIS_TYPE":"0","LAUNCH_DATE":"2020-10-18","OBJECT_ID":"2020-073AE","MEAN_MOTION_DDOT":"0.0000000000000","MEAN_ANOMALY":"284.8019","PERIOD":"95.593","GP_ID":"199347064","FILE":"3368836","TLE_LINE2":"2 46698  53.0537 265.4717 0001426  75.3128 284.8019 15.06391994 78766","TIME_SYSTEM":"UTC","MEAN_MOTION_DOT":"0.00000763","ECCENTRICITY":"0.00014260","NORAD_CAT_ID":"46698","OBJECT_TYPE":"PAYLOAD","BSTAR":"0.00007015600000","DECAY_DATE":null,"CLASSIFICATION_TYPE":"U","OBJECT_NAME":"STARLINK-1797"},{"TLE_LINE1":"1 46699U 20073AF  22080.90643012  .00002805  00000-0  20707-3 0  9997","APOAPSIS":"548.130","PERIAPSIS":"546.203","ARG_OF_PERICENTER":"64.7764","CENTER_NAME":"EARTH","INCLINATION":"53.0531","MEAN_ELEMENT_THEORY":"SGP4","REF_FRAME":"TEME","REV_AT_EPOCH":"7876","ELEMENT_SET_NO":"999","MEAN_MOTION":"15.06415327","RA_OF_ASC_NODE":"265.4713","EPOCH":"2022-03-21T21:45:15.562368","COUNTRY_CODE":"US","RCS_SIZE":"LARGE","SEMIMAJOR_AXIS":"6925.302","FILE":"3368836","LAUNCH_DATE":"2020-10-18","OBJECT_ID":"2020-073AF","SITE":"AFETR","EPHEMERIS_TYPE":"0","PERIOD":"95.591","GP_ID":"199347314","MEAN_MOTION_DDOT":"0.0000000000000","MEAN_ANOMALY":"295.3369","CLASSIFICATION_TYPE":"U","OBJECT_TYPE":"PAYLOAD","BSTAR":"0.00020707000000","DECAY_DATE":null,"OBJECT_NAME":"STARLINK-1799","TLE_LINE2":"2 46699  53.0531 265.4713 0001391  64.7764 295.3369 15.06415327 78768","ECCENTRICITY":"0.00013910","NORAD_CAT_ID":"46699","TIME_SYSTEM":"UTC","MEAN_MOTION_DOT":"0.00002805"},{"TLE_LINE1":"1 46700U 20073AG  22080.57883642  .00002466  00000-0  18435-3 0  9996","PERIAPSIS":"546.083","APOAPSIS":"548.269","ARG_OF_PERICENTER":"67.0654","CENTER_NAME":"EARTH","INCLINATION":"53.0540","REF_FRAME":"TEME","MEAN_ELEMENT_THEORY":"SGP4","REV_AT_EPOCH":"7850","ELEMENT_SET_NO":"999","MEAN_MOTION":"15.06412282","RA_OF_ASC_NODE":"281.9234","EPOCH":"2022-03-21T13:53:31.466688","SEMIMAJOR_AXIS":"6925.311","COUNTRY_CODE":"US","RCS_SIZE":"LARGE","FILE":"3368827","OBJECT_ID":"2020-073AG","LAUNCH_DATE":"2020-10-18","EPHEMERIS_TYPE":"0","SITE":"AFETR","GP_ID":"199322661","PERIOD":"95.591","MEAN_ANOMALY":"293.0502","MEAN_MOTION_DDOT":"0.0000000000000","CLASSIFICATION_TYPE":"U","BSTAR":"0.00018435000000","DECAY_DATE":null,"OBJECT_TYPE":"PAYLOAD","OBJECT_NAME":"STARLINK-1800","TLE_LINE2":"2 46700  53.0540 281.9234 0001578  67.0654 293.0502 15.06412282 78506","NORAD_CAT_ID":"46700","ECCENTRICITY":"0.00015780","MEAN_MOTION_DOT":"0.00002466","TIME_SYSTEM":"UTC"}];
